HAWK-9C                 
1 59448U 24066G   26067.56477702  .00003036  00000+0  26713-3 0  9990
2 59448  45.5963  76.3952 0003436 229.7565 130.3016 14.98771048104736
STARLINK-33993          
1 63949U 25098Z   26068.80554868 -.00087772  00000+0 -74293-2 0  9990
2 63949  70.0003 273.9954 0002378 281.9857  78.1036 14.98390673 46579
